{
    "links": {
        "self": "http://www.neowsapp.com/rest/v1/neo/54051262?api_key=iIulBulltgU6a56xZRHN4H3l9WmuAYTsLGpBGhQ2"
    },
    "id": "54051262",
    "neo_reference_id": "54051262",
    "name": "(2020 QM2)",
    "designation": "2020 QM2",
    "nasa_jpl_url": "http://ssd.jpl.nasa.gov/sbdb.cgi?sstr=54051262",
    "absolute_magnitude_h": 25.09,
    "estimated_diameter": {
        "kilometers": {
            "estimated_diameter_min": 0.0255008688,
            "estimated_diameter_max": 0.0570216761
        },
        "meters": {
            "estimated_diameter_min": 25.5008687857,
            "estimated_diameter_max": 57.0216760901
        },
        "miles": {
            "estimated_diameter_min": 0.0158455003,
            "estimated_diameter_max": 0.0354316159
        },
        "feet": {
            "estimated_diameter_min": 83.6642703469,
            "estimated_diameter_max": 187.0789957835
        }
    },
    "is_potentially_hazardous_asteroid": false,
    "close_approach_data": [
        {
            "close_approach_date": "2015-08-24",
            "close_approach_date_full": "2015-Aug-24 17:52",
            "epoch_date_close_approach": 1440438720000,
            "relative_velocity": {
                "kilometers_per_second": "13.512280529",
                "kilometers_per_hour": "48644.2099043496",
                "miles_per_hour": "30225.6203152888"
            },
            "miss_distance": {
                "astronomical": "0.3047965872",
                "lunar": "118.5658724208",
                "kilometers": "45596920.228389264",
                "miles": "28332612.4292252832"
            },
            "orbiting_body": "Earth"
        },
        {
            "close_approach_date": "2020-03-17",
            "close_approach_date_full": "2020-Mar-17 14:09",
            "epoch_date_close_approach": 1584454140000,
            "relative_velocity": {
                "kilometers_per_second": "15.0332230278",
                "kilometers_per_hour": "54119.6029001045",
                "miles_per_hour": "33627.816590901"
            },
            "miss_distance": {
                "astronomical": "0.4928003874",
                "lunar": "191.6993506986",
                "kilometers": "73721888.290214838",
                "miles": "45808657.2078792444"
            },
            "orbiting_body": "Earth"
        },
        {
            "close_approach_date": "2020-08-19",
            "close_approach_date_full": "2020-Aug-19 22:16",
            "epoch_date_close_approach": 1597875360000,
            "relative_velocity": {
                "kilometers_per_second": "12.4960438326",
                "kilometers_per_hour": "44985.7577973514",
                "miles_per_hour": "27952.4004491376"
            },
            "miss_distance": {
                "astronomical": "0.1125746279",
                "lunar": "43.7915302531",
                "kilometers": "16840924.549882573",
                "miles": "10464465.2715945874"
            },
            "orbiting_body": "Earth"
        },
        {
            "close_approach_date": "2025-03-03",
            "close_approach_date_full": "2025-Mar-03 01:29",
            "epoch_date_close_approach": 1740965340000,
            "relative_velocity": {
                "kilometers_per_second": "13.3944010604",
                "kilometers_per_hour": "48219.843817373",
                "miles_per_hour": "29961.9357319672"
            },
            "miss_distance": {
                "astronomical": "0.3032147741",
                "lunar": "117.9505471249",
                "kilometers": "45360284.357891167",
                "miles": "28185573.7175734246"
            },
            "orbiting_body": "Earth"
        },
        {
            "close_approach_date": "2025-08-18",
            "close_approach_date_full": "2025-Aug-18 14:11",
            "epoch_date_close_approach": 1755526260000,
            "relative_velocity": {
                "kilometers_per_second": "14.7972675056",
                "kilometers_per_hour": "53270.163020214",
                "miles_per_hour": "33100.0076833102"
            },
            "miss_distance": {
                "astronomical": "0.3030680391",
                "lunar": "117.8934672099",
                "kilometers": "45338333.114436717",
                "miles": "28171933.8473800146"
            },
            "orbiting_body": "Earth"
        }
    ],
    "orbital_data": {
        "orbit_id": "1",
        "orbit_determination_date": "2020-08-20 04:12:08",
        "first_observation_date": "2020-08-18",
        "last_observation_date": "2020-08-20",
        "data_arc_in_days": 2,
        "observations_used": 26,
        "orbit_uncertainty": "8",
        "minimum_orbit_intersection": ".112549",
        "jupiter_tisserand_invariant": "5.315",
        "epoch_osculation": "2459080.5",
        "eccentricity": ".04785903655178699",
        "semi_major_axis": "1.168052413089324",
        "inclination": "24.71225566915616",
        "ascending_node_longitude": "148.4317712469342",
        "orbital_period": "461.0966036685312",
        "perihelion_distance": "1.112150549956879",
        "perihelion_argument": "139.0227698982154",
        "aphelion_distance": "1.223954276221769",
        "perihelion_time": "2459034.945117813906",
        "mean_anomaly": "35.56685834707024",
        "mean_motion": ".7807474553831097",
        "equinox": "J2000",
        "orbit_class": {
            "orbit_class_type": "AMO",
            "orbit_class_description": "Near-Earth asteroid orbits similar to that of 1221 Amor",
            "orbit_class_range": "1.017 AU < q (perihelion) < 1.3 AU"
        }
    },
    "is_sentry_object": false
}